[{"OBJECT_NAME":"FLOCK 4BE-27","OBJECT_ID":"2024-149AX","EPOCH":"2026-03-09T18:04:53.053248","MEAN_MOTION":15.32593322,"ECCENTRICITY":0.00027324,"INCLINATION":97.3862,"RA_OF_ASC_NODE":150.6783,"ARG_OF_PERICENTER":305.898,"MEAN_ANOMALY":54.2008,"EPHEMERIS_TYPE":0,"CLASSIFICATION_TYPE":"U","NORAD_CAT_ID":60513,"ELEMENT_SET_NO":999,"REV_AT_EPOCH":8690,"BSTAR":0.00036576028,"MEAN_MOTION_DOT":0.00011439,"MEAN_MOTION_DDOT":0},{"OBJECT_NAME":"STARLINK-34647","OBJECT_ID":"2025-157A","EPOCH":"2026-03-09T23:23:10.227552","MEAN_MOTION":15.30218639,"ECCENTRICITY":0.00012613,"INCLINATION":53.1599,"RA_OF_ASC_NODE":344.6184,"ARG_OF_PERICENTER":67.4333,"MEAN_ANOMALY":292.6802,"EPHEMERIS_TYPE":0,"CLASSIFICATION_TYPE":"U","NORAD_CAT_ID":64904,"ELEMENT_SET_NO":999,"REV_AT_EPOCH":3615,"BSTAR":0.0014253055,"MEAN_MOTION_DOT":0.00042118,"MEAN_MOTION_DDOT":0}]
